IRIDIUM 144             
1 43249U 18030A   23300.79712417  .00000051  00000+0  11172-4 0  9991
2 43249  86.3969 333.0636 0002238  97.7172 262.4278 14.34215557292053
IRIDIUM 149             
1 43250U 18030B   23301.50113684  .00000392  00000+0  13294-3 0  9998
2 43250  86.3964 332.7468 0002292 100.6320 259.5134 14.34214921292173
IRIDIUM 157             
1 43251U 18030C   23300.82249419  .00000277  00000+0  91711-4 0  9992
2 43251  86.3968 333.0622 0002226  88.0962 272.0489 14.34216502292059
IRIDIUM 140             
1 43252U 18030D   23301.53920733  .00000382  00000+0  12951-3 0  9992
2 43252  86.3967 332.7772 0002024 100.7318 259.4106 14.34218065292213
IRIDIUM 145             
1 43253U 18030E   23301.52652458  .00000421  00000+0  14316-3 0  9999
2 43253  86.3966 332.7570 0002439 101.1506 258.9964 14.34217427292142
IRIDIUM 146             
1 43254U 18030F   23301.50749140  .00000278  00000+0  92131-4 0  9995
2 43254  86.3967 332.7803 0002479  98.3216 261.8261 14.34216852292157
IRIDIUM 148             
1 43255U 18030G   23301.54554991  .00000445  00000+0  15165-3 0  9995
2 43255  86.3968 332.7933 0002536  94.5405 265.6081 14.34218501292206
IRIDIUM 142             
1 43256U 18030H   23301.02545660  .00000377  00000+0  12757-3 0  9990
2 43256  86.3965 332.9347 0002377  94.7419 265.4048 14.34218139292089
